OBJECT_NAME,OBJECT_ID,EPOCH,MEAN_MOTION,ECCENTRICITY,INCLINATION,RA_OF_ASC_NODE,ARG_OF_PERICENTER,MEAN_ANOMALY,EPHEMERIS_TYPE,CLASSIFICATION_TYPE,NORAD_CAT_ID,ELEMENT_SET_NO,REV_AT_EPOCH,BSTAR,MEAN_MOTION_DOT,MEAN_MOTION_DDOT
IRIDIUM 156,2018-061H,2026-06-08T02:48:54.298368,14.34219572,.0002126,86.3965,60.5217,80.5238,279.6198,0,U,43576,999,41207,.86161E-4,.261E-5,0
IRIDIUM 164,2018-061J,2026-06-08T02:21:30.399264,14.34217556,.0002065,86.3968,60.5698,88.0599,272.0834,0,U,43577,999,41211,.45849E-4,.148E-5,0
IRIDIUM 159,2018-061K,2026-06-08T03:16:18.306336,14.34219452,.0002297,86.3966,60.4911,85.2268,274.9190,0,U,43578,999,41208,.77625E-4,.237E-5,0
IRIDIUM 180,2019-002A,2026-06-08T01:35:06.897984,14.34218146,.0002245,86.3973,357.4117,89.0670,271.0783,0,U,43922,999,38768,.15149E-4,.62E-6,0
IRIDIUM 176,2019-002B,2026-06-08T01:13:53.546880,14.72255457,.0002203,86.6095,357.3625,90.9520,269.1949,0,U,43923,999,39790,.1325E-3,.86E-5,0
IRIDIUM 168,2019-002C,2026-06-07T22:05:02.966208,14.34217731,.0002195,86.3977,357.5497,89.1500,270.9947,0,U,43924,999,38764,.68408E-5,.39E-6,0
IRIDIUM 173,2019-002D,2026-06-08T01:07:42.818304,14.34217656,.0002243,86.3974,357.3858,86.7216,273.4236,0,U,43925,999,38764,.53686E-4,.17E-5,0
IRIDIUM 169,2019-002E,2026-06-08T03:22:13.463904,14.38610470,.0002158,86.4235,28.9760,70.6451,289.4981,0,U,43926,999,38892,.84334E-4,.278E-5,0
IRIDIUM 172,2019-002F,2026-06-08T02:39:02.886048,14.34218217,.0002271,86.3972,357.3673,89.3648,270.7808,0,U,43927,999,38766,.20524E-4,.77E-6,0
IRIDIUM 175,2019-002G,2026-06-07T22:02:22.721856,14.43607824,.0001317,86.4506,294.3962,218.9968,141.1138,0,U,43928,999,39764,.10396E-3,.372E-5,0
IRIDIUM 171,2019-002H,2026-06-08T02:11:38.904000,14.34217836,.0002031,86.3982,357.6802,87.4042,272.7386,0,U,43929,999,38765,.81028E-5,.42E-6,0
IRIDIUM 170,2019-002J,2026-06-08T01:22:47.883360,14.72253981,.000254,86.6093,357.3626,89.0779,271.0729,0,U,43930,999,39791,.36321E-4,.254E-5,0
IRIDIUM 167,2019-002K,2026-06-08T00:22:02.889408,14.34217622,.0001861,86.3973,357.4291,85.6981,274.4427,0,U,43931,999,38764,.79145E-6,.22E-6,0
IRIDIUM 181,2023-068S,2026-06-08T02:14:50.400960,14.43309970,.0002287,86.4504,60.5917,90.7418,269.4044,0,U,56726,999,16112,.97538E-4,.348E-5,0
IRIDIUM 177,2023-068T,2026-06-07T22:13:19.576992,14.80224059,.0002443,86.1960,333.1913,85.7482,274.4018,0,U,56727,999,16499,.16248E-3,.1261E-4,0
IRIDIUM 174,2023-068U,2026-06-08T01:04:59.899008,14.72251768,.0002577,86.6102,357.5142,85.5444,274.6067,0,U,56728,999,16467,.12958E-3,.842E-5,0
IRIDIUM 178,2023-068V,2026-06-08T02:49:42.204576,14.80219070,.0002672,86.6547,29.1509,89.0453,271.1074,0,U,56729,999,16502,.15284E-3,.1187E-4,0
IRIDIUM 179,2023-068W,2026-06-08T02:41:59.721792,14.80235669,.0002397,86.6788,38.1054,87.2648,272.8848,0,U,56730,999,16502,.1378E-3,.1073E-4,0
